{
    "links": {
        "self": "http://www.neowsapp.com/rest/v1/neo/3610181?api_key=iIulBulltgU6a56xZRHN4H3l9WmuAYTsLGpBGhQ2"
    },
    "id": "3610181",
    "neo_reference_id": "3610181",
    "name": "(2012 TM79)",
    "designation": "2012 TM79",
    "nasa_jpl_url": "http://ssd.jpl.nasa.gov/sbdb.cgi?sstr=3610181",
    "absolute_magnitude_h": 26.6,
    "estimated_diameter": {
        "kilometers": {
            "estimated_diameter_min": 0.0127219879,
            "estimated_diameter_max": 0.0284472297
        },
        "meters": {
            "estimated_diameter_min": 12.7219878539,
            "estimated_diameter_max": 28.4472296503
        },
        "miles": {
            "estimated_diameter_min": 0.0079050743,
            "estimated_diameter_max": 0.0176762835
        },
        "feet": {
            "estimated_diameter_min": 41.7388066307,
            "estimated_diameter_max": 93.330808926
        }
    },
    "is_potentially_hazardous_asteroid": false,
    "close_approach_data": [
        {
            "close_approach_date": "2009-11-04",
            "close_approach_date_full": "2009-Nov-04 20:31",
            "epoch_date_close_approach": 1257366660000,
            "relative_velocity": {
                "kilometers_per_second": "17.1737049276",
                "kilometers_per_hour": "61825.3377394914",
                "miles_per_hour": "38415.8605526301"
            },
            "miss_distance": {
                "astronomical": "0.2509060983",
                "lunar": "97.6024722387",
                "kilometers": "37535017.875690621",
                "miles": "23323178.5977917298"
            },
            "orbiting_body": "Earth"
        },
        {
            "close_approach_date": "2012-10-09",
            "close_approach_date_full": "2012-Oct-09 17:05",
            "epoch_date_close_approach": 1349802300000,
            "relative_velocity": {
                "kilometers_per_second": "9.8634035292",
                "kilometers_per_hour": "35508.2527051491",
                "miles_per_hour": "22063.4473544855"
            },
            "miss_distance": {
                "astronomical": "0.0006151307",
                "lunar": "0.2392858423",
                "kilometers": "92022.242491609",
                "miles": "57179.9700138442"
            },
            "orbiting_body": "Earth"
        },
        {
            "close_approach_date": "2012-10-09",
            "close_approach_date_full": "2012-Oct-09 21:35",
            "epoch_date_close_approach": 1349818500000,
            "relative_velocity": {
                "kilometers_per_second": "10.5751903369",
                "kilometers_per_hour": "38070.6852128108",
                "miles_per_hour": "23655.6432645935"
            },
            "miss_distance": {
                "astronomical": "0.0027135991",
                "lunar": "1.0555900499",
                "kilometers": "405948.645393917",
                "miles": "252244.7915013746"
            },
            "orbiting_body": "Moon"
        }
    ],
    "orbital_data": {
        "orbit_id": "5",
        "orbit_determination_date": "2017-04-06 08:48:38",
        "first_observation_date": "2012-10-10",
        "last_observation_date": "2012-10-11",
        "data_arc_in_days": 1,
        "observations_used": 40,
        "orbit_uncertainty": "7",
        "minimum_orbit_intersection": ".000253794",
        "jupiter_tisserand_invariant": "3.491",
        "epoch_osculation": "2459000.5",
        "eccentricity": ".5530126919545424",
        "semi_major_axis": "2.150037269139766",
        "inclination": "1.400211498004628",
        "ascending_node_longitude": "15.1476159288207",
        "orbital_period": "1151.509191873117",
        "perihelion_distance": ".9610393711301909",
        "perihelion_argument": "334.1038329076695",
        "aphelion_distance": "3.339035167149341",
        "perihelion_time": "2458490.510024415112",
        "mean_anomaly": "159.4397964916894",
        "mean_motion": ".3126331969737917",
        "equinox": "J2000",
        "orbit_class": {
            "orbit_class_type": "APO",
            "orbit_class_description": "Near-Earth asteroid orbits which cross the Earth’s orbit similar to that of 1862 Apollo",
            "orbit_class_range": "a (semi-major axis) > 1.0 AU; q (perihelion) < 1.017 AU"
        }
    },
    "is_sentry_object": false
}